{
"type": "FeatureCollection",
"name": "risk_points",
"crs": { "type": "name", "properties": { "name": "urn:ogc:def:crs:OGC:1.3:CRS84" } },
"features": [
{ "type": "Feature", "properties": { "sample_id": "S001", "crs": 0.0084, "hi_computed": 0.0042, "tph_score": 0.0062, "metal_score": 0.0583, "ndvi_stress": 0.138, "risk_tier": "low", "colour": "#69F0AE" }, "geometry": { "type": "Point", "coordinates": [ 6.9, 5.0 ] } },
{ "type": "Feature", "properties": { "sample_id": "S002", "crs": 0.0114, "hi_computed": 0.004, "tph_score": 0.0095, "metal_score": 0.0554, "ndvi_stress": 0.0881, "risk_tier": "low", "colour": "#69F0AE" }, "geometry": { "type": "Point", "coordinates": [ 7.1, 4.8 ] } },
{ "type": "Feature", "properties": { "sample_id": "S003", "crs": 0.0139, "hi_computed": 0.03, "tph_score": 0.0102, "metal_score": 0.098800004, "ndvi_stress": 0.0049, "risk_tier": "low", "colour": "#69F0AE" }, "geometry": { "type": "Point", "coordinates": [ 7.4, 4.7 ] } },
{ "type": "Feature", "properties": { "sample_id": "S004", "crs": 0.0099, "hi_computed": 0.0007, "tph_score": 0.0089, "metal_score": 0.032, "ndvi_stress": 0.0728, "risk_tier": "low", "colour": "#69F0AE" }, "geometry": { "type": "Point", "coordinates": [ 7.0, 4.8 ] } },
{ "type": "Feature", "properties": { "sample_id": "S005", "crs": 0.014, "hi_computed": 0.0004, "tph_score": 0.014, "metal_score": 0.0144, "ndvi_stress": 0.0, "risk_tier": "low", "colour": "#69F0AE" }, "geometry": { "type": "Point", "coordinates": [ 7.9, 5.0 ] } },
{ "type": "Feature", "properties": { "sample_id": "S006", "crs": 0.0061, "hi_computed": 0.0066, "tph_score": 0.0055, "metal_score": 0.0208, "ndvi_stress": 0.1413, "risk_tier": "low", "colour": "#69F0AE" }, "geometry": { "type": "Point", "coordinates": [ 6.3, 4.9 ] } },
{ "type": "Feature", "properties": { "sample_id": "S007", "crs": 0.0084, "hi_computed": 0.0003, "tph_score": 0.0062, "metal_score": 0.0583, "ndvi_stress": 0.138, "risk_tier": "low", "colour": "#69F0AE" }, "geometry": { "type": "Point", "coordinates": [ 6.9, 5.0 ] } },
{ "type": "Feature", "properties": { "sample_id": "S008", "crs": 0.0114, "hi_computed": 0.0003, "tph_score": 0.0095, "metal_score": 0.0554, "ndvi_stress": 0.0881, "risk_tier": "low", "colour": "#69F0AE" }, "geometry": { "type": "Point", "coordinates": [ 7.1, 4.8 ] } },
{ "type": "Feature", "properties": { "sample_id": "S009", "crs": 0.0139, "hi_computed": 0.0468, "tph_score": 0.0102, "metal_score": 0.098800004, "ndvi_stress": 0.0049, "risk_tier": "low", "colour": "#69F0AE" }, "geometry": { "type": "Point", "coordinates": [ 7.4, 4.7 ] } },
{ "type": "Feature", "properties": { "sample_id": "S010", "crs": 0.0099, "hi_computed": 0.0006, "tph_score": 0.0089, "metal_score": 0.032, "ndvi_stress": 0.0728, "risk_tier": "low", "colour": "#69F0AE" }, "geometry": { "type": "Point", "coordinates": [ 7.0, 4.8 ] } },
{ "type": "Feature", "properties": { "sample_id": "S011", "crs": 0.014, "hi_computed": 0.0004, "tph_score": 0.014, "metal_score": 0.0144, "ndvi_stress": 0.0, "risk_tier": "low", "colour": "#69F0AE" }, "geometry": { "type": "Point", "coordinates": [ 7.9, 5.0 ] } },
{ "type": "Feature", "properties": { "sample_id": "S012", "crs": 0.0061, "hi_computed": 0.0005, "tph_score": 0.0055, "metal_score": 0.0208, "ndvi_stress": 0.1413, "risk_tier": "low", "colour": "#69F0AE" }, "geometry": { "type": "Point", "coordinates": [ 6.3, 4.9 ] } },
{ "type": "Feature", "properties": { "sample_id": "S013", "crs": 0.0084, "hi_computed": 0.0004, "tph_score": 0.0062, "metal_score": 0.0583, "ndvi_stress": 0.138, "risk_tier": "low", "colour": "#69F0AE" }, "geometry": { "type": "Point", "coordinates": [ 6.9, 5.0 ] } },
{ "type": "Feature", "properties": { "sample_id": "S014", "crs": 0.0114, "hi_computed": 0.0003, "tph_score": 0.0095, "metal_score": 0.0554, "ndvi_stress": 0.0881, "risk_tier": "low", "colour": "#69F0AE" }, "geometry": { "type": "Point", "coordinates": [ 7.1, 4.8 ] } },
{ "type": "Feature", "properties": { "sample_id": "S015", "crs": 0.0139, "hi_computed": 0.0003, "tph_score": 0.0102, "metal_score": 0.098800004, "ndvi_stress": 0.0049, "risk_tier": "low", "colour": "#69F0AE" }, "geometry": { "type": "Point", "coordinates": [ 7.4, 4.7 ] } },
{ "type": "Feature", "properties": { "sample_id": "S016", "crs": 0.0099, "hi_computed": 0.0008, "tph_score": 0.0089, "metal_score": 0.032, "ndvi_stress": 0.0728, "risk_tier": "low", "colour": "#69F0AE" }, "geometry": { "type": "Point", "coordinates": [ 7.0, 4.8 ] } },
{ "type": "Feature", "properties": { "sample_id": "S017", "crs": 0.014, "hi_computed": 0.0003, "tph_score": 0.014, "metal_score": 0.0144, "ndvi_stress": 0.0, "risk_tier": "low", "colour": "#69F0AE" }, "geometry": { "type": "Point", "coordinates": [ 7.9, 5.0 ] } },
{ "type": "Feature", "properties": { "sample_id": "S018", "crs": 0.0061, "hi_computed": 0.0006, "tph_score": 0.0055, "metal_score": 0.0208, "ndvi_stress": 0.1413, "risk_tier": "low", "colour": "#69F0AE" }, "geometry": { "type": "Point", "coordinates": [ 6.3, 4.9 ] } },
{ "type": "Feature", "properties": { "sample_id": "S019", "crs": 0.0084, "hi_computed": 0.0003, "tph_score": 0.0062, "metal_score": 0.0583, "ndvi_stress": 0.138, "risk_tier": "low", "colour": "#69F0AE" }, "geometry": { "type": "Point", "coordinates": [ 6.9, 5.0 ] } },
{ "type": "Feature", "properties": { "sample_id": "S020", "crs": 0.0114, "hi_computed": 0.0003, "tph_score": 0.0095, "metal_score": 0.0554, "ndvi_stress": 0.0881, "risk_tier": "low", "colour": "#69F0AE" }, "geometry": { "type": "Point", "coordinates": [ 7.1, 4.8 ] } },
{ "type": "Feature", "properties": { "sample_id": "S021", "crs": 0.0139, "hi_computed": 0.0003, "tph_score": 0.0102, "metal_score": 0.098800004, "ndvi_stress": 0.0049, "risk_tier": "low", "colour": "#69F0AE" }, "geometry": { "type": "Point", "coordinates": [ 7.4, 4.7 ] } },
{ "type": "Feature", "properties": { "sample_id": "S022", "crs": 0.0099, "hi_computed": 0.0011, "tph_score": 0.0089, "metal_score": 0.032, "ndvi_stress": 0.0728, "risk_tier": "low", "colour": "#69F0AE" }, "geometry": { "type": "Point", "coordinates": [ 7.0, 4.8 ] } },
{ "type": "Feature", "properties": { "sample_id": "S023", "crs": 0.014, "hi_computed": 0.0004, "tph_score": 0.014, "metal_score": 0.0144, "ndvi_stress": 0.0, "risk_tier": "low", "colour": "#69F0AE" }, "geometry": { "type": "Point", "coordinates": [ 7.9, 5.0 ] } },
{ "type": "Feature", "properties": { "sample_id": "S024", "crs": 0.0061, "hi_computed": 0.0004, "tph_score": 0.0055, "metal_score": 0.0208, "ndvi_stress": 0.1413, "risk_tier": "low", "colour": "#69F0AE" }, "geometry": { "type": "Point", "coordinates": [ 6.3, 4.9 ] } },
{ "type": "Feature", "properties": { "sample_id": "S025", "crs": 0.806, "hi_computed": 0.0, "tph_score": 0.84179997, "metal_score": 0.0, "ndvi_stress": 0.0881, "risk_tier": "critical", "colour": "#FF1744" }, "geometry": { "type": "Point", "coordinates": [ 7.185, 4.7767 ] } },
{ "type": "Feature", "properties": { "sample_id": "S026", "crs": 0.9246, "hi_computed": 0.0, "tph_score": 0.96560001, "metal_score": 0.0, "ndvi_stress": 0.0453, "risk_tier": "critical", "colour": "#FF1744" }, "geometry": { "type": "Point", "coordinates": [ 7.158, 4.718 ] } },
{ "type": "Feature", "properties": { "sample_id": "S027", "crs": 0.6706, "hi_computed": 0.0, "tph_score": 0.70029998, "metal_score": 0.0, "ndvi_stress": 0.0881, "risk_tier": "high", "colour": "#FF6D00" }, "geometry": { "type": "Point", "coordinates": [ 7.195, 4.78 ] } },
{ "type": "Feature", "properties": { "sample_id": "S028", "crs": 0.2488, "hi_computed": 0.0, "tph_score": 0.2599, "metal_score": 0.0, "ndvi_stress": 0.0604, "risk_tier": "low", "colour": "#69F0AE" }, "geometry": { "type": "Point", "coordinates": [ 7.18, 4.73 ] } },
{ "type": "Feature", "properties": { "sample_id": "S029", "crs": 0.2488, "hi_computed": 0.0, "tph_score": 0.2599, "metal_score": 0.0, "ndvi_stress": 0.0604, "risk_tier": "low", "colour": "#69F0AE" }, "geometry": { "type": "Point", "coordinates": [ 7.18, 4.73 ] } },
{ "type": "Feature", "properties": { "sample_id": "S030", "crs": 0.7059, "hi_computed": 0.0, "tph_score": 0.73720002, "metal_score": 0.0, "ndvi_stress": 0.0453, "risk_tier": "high", "colour": "#FF6D00" }, "geometry": { "type": "Point", "coordinates": [ 7.16, 4.71 ] } },
{ "type": "Feature", "properties": { "sample_id": "S031", "crs": 0.0056, "hi_computed": 0.0, "tph_score": 0.0058, "metal_score": 0.0, "ndvi_stress": 0.0881, "risk_tier": "low", "colour": "#69F0AE" }, "geometry": { "type": "Point", "coordinates": [ 7.03, 4.82 ] } },
{ "type": "Feature", "properties": { "sample_id": "S032", "crs": 0.6264, "hi_computed": 0.0, "tph_score": 0.65420002, "metal_score": 0.0, "ndvi_stress": 0.0881, "risk_tier": "high", "colour": "#FF6D00" }, "geometry": { "type": "Point", "coordinates": [ 7.19, 4.78 ] } },
{ "type": "Feature", "properties": { "sample_id": "S033", "crs": 0.0182, "hi_computed": 0.0, "tph_score": 0.019, "metal_score": 0.0006, "ndvi_stress": 0.0486, "risk_tier": "low", "colour": "#69F0AE" }, "geometry": { "type": "Point", "coordinates": [ 7.17, 4.43 ] } },
{ "type": "Feature", "properties": { "sample_id": "S034", "crs": 0.6592, "hi_computed": 0.0, "tph_score": 0.68839997, "metal_score": 0.0, "ndvi_stress": 0.0447, "risk_tier": "high", "colour": "#FF6D00" }, "geometry": { "type": "Point", "coordinates": [ 7.09, 4.72 ] } },
{ "type": "Feature", "properties": { "sample_id": "S035", "crs": 0.6592, "hi_computed": 0.0, "tph_score": 0.68839997, "metal_score": 0.0, "ndvi_stress": 0.0447, "risk_tier": "high", "colour": "#FF6D00" }, "geometry": { "type": "Point", "coordinates": [ 7.09, 4.72 ] } },
{ "type": "Feature", "properties": { "sample_id": "S036", "crs": 0.6592, "hi_computed": 0.0, "tph_score": 0.68839997, "metal_score": 0.0, "ndvi_stress": 0.0447, "risk_tier": "high", "colour": "#FF6D00" }, "geometry": { "type": "Point", "coordinates": [ 7.09, 4.72 ] } },
{ "type": "Feature", "properties": { "sample_id": "S037", "crs": 0.6592, "hi_computed": 0.0, "tph_score": 0.68839997, "metal_score": 0.0, "ndvi_stress": 0.0447, "risk_tier": "high", "colour": "#FF6D00" }, "geometry": { "type": "Point", "coordinates": [ 7.09, 4.72 ] } },
{ "type": "Feature", "properties": { "sample_id": "S038", "crs": 0.7059, "hi_computed": 0.0, "tph_score": 0.73720002, "metal_score": 0.0, "ndvi_stress": 0.0453, "risk_tier": "high", "colour": "#FF6D00" }, "geometry": { "type": "Point", "coordinates": [ 7.16, 4.71 ] } },
{ "type": "Feature", "properties": { "sample_id": "S039", "crs": 0.7059, "hi_computed": 0.0, "tph_score": 0.73720002, "metal_score": 0.0, "ndvi_stress": 0.0453, "risk_tier": "high", "colour": "#FF6D00" }, "geometry": { "type": "Point", "coordinates": [ 7.16, 4.71 ] } },
{ "type": "Feature", "properties": { "sample_id": "S040", "crs": 0.9246, "hi_computed": 0.0, "tph_score": 0.96560001, "metal_score": 0.0, "ndvi_stress": 0.0453, "risk_tier": "critical", "colour": "#FF1744" }, "geometry": { "type": "Point", "coordinates": [ 7.158, 4.718 ] } },
{ "type": "Feature", "properties": { "sample_id": "S041", "crs": 0.6264, "hi_computed": 0.0, "tph_score": 0.65420002, "metal_score": 0.0, "ndvi_stress": 0.0881, "risk_tier": "high", "colour": "#FF6D00" }, "geometry": { "type": "Point", "coordinates": [ 7.19, 4.78 ] } },
{ "type": "Feature", "properties": { "sample_id": "S042", "crs": 0.6264, "hi_computed": 0.0, "tph_score": 0.65420002, "metal_score": 0.0, "ndvi_stress": 0.0881, "risk_tier": "high", "colour": "#FF6D00" }, "geometry": { "type": "Point", "coordinates": [ 7.19, 4.78 ] } },
{ "type": "Feature", "properties": { "sample_id": "S043", "crs": 0.6264, "hi_computed": 0.0, "tph_score": 0.65420002, "metal_score": 0.0, "ndvi_stress": 0.0881, "risk_tier": "high", "colour": "#FF6D00" }, "geometry": { "type": "Point", "coordinates": [ 7.19, 4.78 ] } },
{ "type": "Feature", "properties": { "sample_id": "S044", "crs": 0.0056, "hi_computed": 0.0, "tph_score": 0.0058, "metal_score": 0.0, "ndvi_stress": 0.0881, "risk_tier": "low", "colour": "#69F0AE" }, "geometry": { "type": "Point", "coordinates": [ 7.03, 4.82 ] } },
{ "type": "Feature", "properties": { "sample_id": "S045", "crs": 0.6264, "hi_computed": 0.0, "tph_score": 0.65420002, "metal_score": 0.0, "ndvi_stress": 0.0881, "risk_tier": "high", "colour": "#FF6D00" }, "geometry": { "type": "Point", "coordinates": [ 7.19, 4.78 ] } },
{ "type": "Feature", "properties": { "sample_id": "S046", "crs": 0.6264, "hi_computed": 0.0, "tph_score": 0.65420002, "metal_score": 0.0, "ndvi_stress": 0.0881, "risk_tier": "high", "colour": "#FF6D00" }, "geometry": { "type": "Point", "coordinates": [ 7.19, 4.78 ] } },
{ "type": "Feature", "properties": { "sample_id": "S047", "crs": 0.2488, "hi_computed": 0.0, "tph_score": 0.2599, "metal_score": 0.0, "ndvi_stress": 0.0604, "risk_tier": "low", "colour": "#69F0AE" }, "geometry": { "type": "Point", "coordinates": [ 7.18, 4.73 ] } },
{ "type": "Feature", "properties": { "sample_id": "S048", "crs": 0.7059, "hi_computed": 0.0, "tph_score": 0.73720002, "metal_score": 0.0, "ndvi_stress": 0.0453, "risk_tier": "high", "colour": "#FF6D00" }, "geometry": { "type": "Point", "coordinates": [ 7.16, 4.71 ] } },
{ "type": "Feature", "properties": { "sample_id": "S049", "crs": 0.6592, "hi_computed": 0.0, "tph_score": 0.68839997, "metal_score": 0.0, "ndvi_stress": 0.0447, "risk_tier": "high", "colour": "#FF6D00" }, "geometry": { "type": "Point", "coordinates": [ 7.09, 4.72 ] } },
{ "type": "Feature", "properties": { "sample_id": "S050", "crs": 0.6592, "hi_computed": 0.0, "tph_score": 0.68839997, "metal_score": 0.0, "ndvi_stress": 0.0447, "risk_tier": "high", "colour": "#FF6D00" }, "geometry": { "type": "Point", "coordinates": [ 7.09, 4.72 ] } },
{ "type": "Feature", "properties": { "sample_id": "S051", "crs": 0.7059, "hi_computed": 0.0, "tph_score": 0.73720002, "metal_score": 0.0, "ndvi_stress": 0.0453, "risk_tier": "high", "colour": "#FF6D00" }, "geometry": { "type": "Point", "coordinates": [ 7.16, 4.71 ] } },
{ "type": "Feature", "properties": { "sample_id": "S052", "crs": 0.6592, "hi_computed": 0.0, "tph_score": 0.68839997, "metal_score": 0.0, "ndvi_stress": 0.0447, "risk_tier": "high", "colour": "#FF6D00" }, "geometry": { "type": "Point", "coordinates": [ 7.09, 4.72 ] } },
{ "type": "Feature", "properties": { "sample_id": "S053", "crs": 0.6592, "hi_computed": 0.0, "tph_score": 0.68839997, "metal_score": 0.0, "ndvi_stress": 0.0447, "risk_tier": "high", "colour": "#FF6D00" }, "geometry": { "type": "Point", "coordinates": [ 7.09, 4.72 ] } },
{ "type": "Feature", "properties": { "sample_id": "S054", "crs": 0.6264, "hi_computed": 0.0, "tph_score": 0.65420002, "metal_score": 0.0, "ndvi_stress": 0.0881, "risk_tier": "high", "colour": "#FF6D00" }, "geometry": { "type": "Point", "coordinates": [ 7.19, 4.78 ] } },
{ "type": "Feature", "properties": { "sample_id": "S055", "crs": 0.6264, "hi_computed": 0.0, "tph_score": 0.65420002, "metal_score": 0.0, "ndvi_stress": 0.0881, "risk_tier": "high", "colour": "#FF6D00" }, "geometry": { "type": "Point", "coordinates": [ 7.19, 4.78 ] } },
{ "type": "Feature", "properties": { "sample_id": "S056", "crs": 0.6264, "hi_computed": 0.0, "tph_score": 0.65420002, "metal_score": 0.0, "ndvi_stress": 0.0881, "risk_tier": "high", "colour": "#FF6D00" }, "geometry": { "type": "Point", "coordinates": [ 7.19, 4.78 ] } },
{ "type": "Feature", "properties": { "sample_id": "S057", "crs": 0.6264, "hi_computed": 0.0, "tph_score": 0.65420002, "metal_score": 0.0, "ndvi_stress": 0.0881, "risk_tier": "high", "colour": "#FF6D00" }, "geometry": { "type": "Point", "coordinates": [ 7.19, 4.78 ] } },
{ "type": "Feature", "properties": { "sample_id": "S058", "crs": 0.1674, "hi_computed": 0.0, "tph_score": 0.17479999, "metal_score": 0.0, "ndvi_stress": 0.0881, "risk_tier": "low", "colour": "#69F0AE" }, "geometry": { "type": "Point", "coordinates": [ 7.19, 4.775 ] } },
{ "type": "Feature", "properties": { "sample_id": "S059", "crs": 0.9274, "hi_computed": 0.0, "tph_score": 0.96850002, "metal_score": 0.0, "ndvi_stress": 0.0447, "risk_tier": "critical", "colour": "#FF1744" }, "geometry": { "type": "Point", "coordinates": [ 7.12, 4.735 ] } },
{ "type": "Feature", "properties": { "sample_id": "S060", "crs": 0.6592, "hi_computed": 0.0, "tph_score": 0.68839997, "metal_score": 0.0, "ndvi_stress": 0.0447, "risk_tier": "high", "colour": "#FF6D00" }, "geometry": { "type": "Point", "coordinates": [ 7.09, 4.72 ] } },
{ "type": "Feature", "properties": { "sample_id": "S061", "crs": 0.6592, "hi_computed": 0.0, "tph_score": 0.68839997, "metal_score": 0.0, "ndvi_stress": 0.0447, "risk_tier": "high", "colour": "#FF6D00" }, "geometry": { "type": "Point", "coordinates": [ 7.09, 4.72 ] } },
{ "type": "Feature", "properties": { "sample_id": "S062", "crs": 0.7059, "hi_computed": 0.0, "tph_score": 0.73720002, "metal_score": 0.0, "ndvi_stress": 0.0453, "risk_tier": "high", "colour": "#FF6D00" }, "geometry": { "type": "Point", "coordinates": [ 7.16, 4.71 ] } },
{ "type": "Feature", "properties": { "sample_id": "S063", "crs": 0.7059, "hi_computed": 0.0, "tph_score": 0.73720002, "metal_score": 0.0, "ndvi_stress": 0.0453, "risk_tier": "high", "colour": "#FF6D00" }, "geometry": { "type": "Point", "coordinates": [ 7.16, 4.71 ] } },
{ "type": "Feature", "properties": { "sample_id": "S064", "crs": 0.6264, "hi_computed": 0.0, "tph_score": 0.65420002, "metal_score": 0.0, "ndvi_stress": 0.0881, "risk_tier": "high", "colour": "#FF6D00" }, "geometry": { "type": "Point", "coordinates": [ 7.19, 4.78 ] } },
{ "type": "Feature", "properties": { "sample_id": "S065", "crs": 0.6592, "hi_computed": 0.0, "tph_score": 0.68839997, "metal_score": 0.0, "ndvi_stress": 0.0447, "risk_tier": "high", "colour": "#FF6D00" }, "geometry": { "type": "Point", "coordinates": [ 7.09, 4.72 ] } },
{ "type": "Feature", "properties": { "sample_id": "S066", "crs": 0.6592, "hi_computed": 0.0, "tph_score": 0.68839997, "metal_score": 0.0, "ndvi_stress": 0.0447, "risk_tier": "high", "colour": "#FF6D00" }, "geometry": { "type": "Point", "coordinates": [ 7.09, 4.72 ] } },
{ "type": "Feature", "properties": { "sample_id": "S067", "crs": 0.6592, "hi_computed": 0.0, "tph_score": 0.68839997, "metal_score": 0.0, "ndvi_stress": 0.0447, "risk_tier": "high", "colour": "#FF6D00" }, "geometry": { "type": "Point", "coordinates": [ 7.09, 4.72 ] } },
{ "type": "Feature", "properties": { "sample_id": "S068", "crs": 0.6592, "hi_computed": 0.0, "tph_score": 0.68839997, "metal_score": 0.0, "ndvi_stress": 0.0447, "risk_tier": "high", "colour": "#FF6D00" }, "geometry": { "type": "Point", "coordinates": [ 7.09, 4.72 ] } },
{ "type": "Feature", "properties": { "sample_id": "S069", "crs": 0.5285, "hi_computed": 0.0, "tph_score": 0.55190003, "metal_score": 0.0, "ndvi_stress": 0.0563, "risk_tier": "high", "colour": "#FF6D00" }, "geometry": { "type": "Point", "coordinates": [ 7.13, 4.68 ] } },
{ "type": "Feature", "properties": { "sample_id": "S070", "crs": 0.5285, "hi_computed": 0.0, "tph_score": 0.55190003, "metal_score": 0.0, "ndvi_stress": 0.0563, "risk_tier": "high", "colour": "#FF6D00" }, "geometry": { "type": "Point", "coordinates": [ 7.13, 4.68 ] } },
{ "type": "Feature", "properties": { "sample_id": "S071", "crs": 0.5285, "hi_computed": 0.0, "tph_score": 0.55190003, "metal_score": 0.0, "ndvi_stress": 0.0563, "risk_tier": "high", "colour": "#FF6D00" }, "geometry": { "type": "Point", "coordinates": [ 7.13, 4.68 ] } },
{ "type": "Feature", "properties": { "sample_id": "S072", "crs": 0.5285, "hi_computed": 0.0, "tph_score": 0.55190003, "metal_score": 0.0, "ndvi_stress": 0.0563, "risk_tier": "high", "colour": "#FF6D00" }, "geometry": { "type": "Point", "coordinates": [ 7.13, 4.68 ] } },
{ "type": "Feature", "properties": { "sample_id": "S073", "crs": 0.5285, "hi_computed": 0.0, "tph_score": 0.55190003, "metal_score": 0.0, "ndvi_stress": 0.0563, "risk_tier": "high", "colour": "#FF6D00" }, "geometry": { "type": "Point", "coordinates": [ 7.13, 4.68 ] } },
{ "type": "Feature", "properties": { "sample_id": "S074", "crs": 0.7059, "hi_computed": 0.0, "tph_score": 0.73720002, "metal_score": 0.0, "ndvi_stress": 0.0453, "risk_tier": "high", "colour": "#FF6D00" }, "geometry": { "type": "Point", "coordinates": [ 7.16, 4.71 ] } },
{ "type": "Feature", "properties": { "sample_id": "S075", "crs": 0.7059, "hi_computed": 0.0, "tph_score": 0.73720002, "metal_score": 0.0, "ndvi_stress": 0.0453, "risk_tier": "high", "colour": "#FF6D00" }, "geometry": { "type": "Point", "coordinates": [ 7.16, 4.71 ] } },
{ "type": "Feature", "properties": { "sample_id": "S076", "crs": 0.7059, "hi_computed": 0.0, "tph_score": 0.73720002, "metal_score": 0.0, "ndvi_stress": 0.0453, "risk_tier": "high", "colour": "#FF6D00" }, "geometry": { "type": "Point", "coordinates": [ 7.16, 4.71 ] } },
{ "type": "Feature", "properties": { "sample_id": "S077", "crs": 0.6264, "hi_computed": 0.0, "tph_score": 0.65420002, "metal_score": 0.0, "ndvi_stress": 0.0881, "risk_tier": "high", "colour": "#FF6D00" }, "geometry": { "type": "Point", "coordinates": [ 7.19, 4.78 ] } },
{ "type": "Feature", "properties": { "sample_id": "S078", "crs": 0.6264, "hi_computed": 0.0, "tph_score": 0.65420002, "metal_score": 0.0, "ndvi_stress": 0.0881, "risk_tier": "high", "colour": "#FF6D00" }, "geometry": { "type": "Point", "coordinates": [ 7.19, 4.78 ] } },
{ "type": "Feature", "properties": { "sample_id": "S079", "crs": 0.7059, "hi_computed": 0.0, "tph_score": 0.73720002, "metal_score": 0.0, "ndvi_stress": 0.0453, "risk_tier": "high", "colour": "#FF6D00" }, "geometry": { "type": "Point", "coordinates": [ 7.16, 4.71 ] } },
{ "type": "Feature", "properties": { "sample_id": "S080", "crs": 0.7059, "hi_computed": 0.0, "tph_score": 0.73720002, "metal_score": 0.0, "ndvi_stress": 0.0453, "risk_tier": "high", "colour": "#FF6D00" }, "geometry": { "type": "Point", "coordinates": [ 7.16, 4.71 ] } },
{ "type": "Feature", "properties": { "sample_id": "S081", "crs": 0.9198, "hi_computed": 0.0, "tph_score": 0.96060002, "metal_score": 0.0, "ndvi_stress": 0.0453, "risk_tier": "critical", "colour": "#FF1744" }, "geometry": { "type": "Point", "coordinates": [ 7.15, 4.72 ] } },
{ "type": "Feature", "properties": { "sample_id": "S082", "crs": 0.5285, "hi_computed": 0.0, "tph_score": 0.55190003, "metal_score": 0.0, "ndvi_stress": 0.0563, "risk_tier": "high", "colour": "#FF6D00" }, "geometry": { "type": "Point", "coordinates": [ 7.13, 4.68 ] } },
{ "type": "Feature", "properties": { "sample_id": "S083", "crs": 0.6592, "hi_computed": 0.0, "tph_score": 0.68839997, "metal_score": 0.0, "ndvi_stress": 0.0447, "risk_tier": "high", "colour": "#FF6D00" }, "geometry": { "type": "Point", "coordinates": [ 7.09, 4.72 ] } },
{ "type": "Feature", "properties": { "sample_id": "S084", "crs": 0.7059, "hi_computed": 0.0, "tph_score": 0.73720002, "metal_score": 0.0, "ndvi_stress": 0.0453, "risk_tier": "high", "colour": "#FF6D00" }, "geometry": { "type": "Point", "coordinates": [ 7.16, 4.71 ] } },
{ "type": "Feature", "properties": { "sample_id": "S085", "crs": 0.6264, "hi_computed": 0.0, "tph_score": 0.65420002, "metal_score": 0.0, "ndvi_stress": 0.0881, "risk_tier": "high", "colour": "#FF6D00" }, "geometry": { "type": "Point", "coordinates": [ 7.19, 4.78 ] } },
{ "type": "Feature", "properties": { "sample_id": "S086", "crs": 0.6592, "hi_computed": 0.0, "tph_score": 0.68839997, "metal_score": 0.0, "ndvi_stress": 0.0447, "risk_tier": "high", "colour": "#FF6D00" }, "geometry": { "type": "Point", "coordinates": [ 7.09, 4.72 ] } },
{ "type": "Feature", "properties": { "sample_id": "S087", "crs": 0.9223, "hi_computed": 0.0, "tph_score": 0.96319997, "metal_score": 0.0, "ndvi_stress": 0.0447, "risk_tier": "critical", "colour": "#FF1744" }, "geometry": { "type": "Point", "coordinates": [ 7.115, 4.735 ] } },
{ "type": "Feature", "properties": { "sample_id": "S088", "crs": 0.6592, "hi_computed": 0.0, "tph_score": 0.68839997, "metal_score": 0.0, "ndvi_stress": 0.0447, "risk_tier": "high", "colour": "#FF6D00" }, "geometry": { "type": "Point", "coordinates": [ 7.09, 4.72 ] } },
{ "type": "Feature", "properties": { "sample_id": "S089", "crs": 0.7744, "hi_computed": 0.0, "tph_score": 0.80870003, "metal_score": 0.0, "ndvi_stress": 0.0881, "risk_tier": "critical", "colour": "#FF1744" }, "geometry": { "type": "Point", "coordinates": [ 7.17, 4.79 ] } },
{ "type": "Feature", "properties": { "sample_id": "S090", "crs": 0.6264, "hi_computed": 0.0, "tph_score": 0.65420002, "metal_score": 0.0, "ndvi_stress": 0.0881, "risk_tier": "high", "colour": "#FF6D00" }, "geometry": { "type": "Point", "coordinates": [ 7.19, 4.78 ] } },
{ "type": "Feature", "properties": { "sample_id": "S091", "crs": 0.6264, "hi_computed": 0.0, "tph_score": 0.65420002, "metal_score": 0.0, "ndvi_stress": 0.0881, "risk_tier": "high", "colour": "#FF6D00" }, "geometry": { "type": "Point", "coordinates": [ 7.19, 4.78 ] } },
{ "type": "Feature", "properties": { "sample_id": "S092", "crs": 0.7059, "hi_computed": 0.0, "tph_score": 0.73720002, "metal_score": 0.0, "ndvi_stress": 0.0453, "risk_tier": "high", "colour": "#FF6D00" }, "geometry": { "type": "Point", "coordinates": [ 7.16, 4.71 ] } },
{ "type": "Feature", "properties": { "sample_id": "S093", "crs": 0.6592, "hi_computed": 0.0, "tph_score": 0.68839997, "metal_score": 0.0, "ndvi_stress": 0.0447, "risk_tier": "high", "colour": "#FF6D00" }, "geometry": { "type": "Point", "coordinates": [ 7.09, 4.72 ] } },
{ "type": "Feature", "properties": { "sample_id": "S094", "crs": 0.7059, "hi_computed": 0.0, "tph_score": 0.73720002, "metal_score": 0.0, "ndvi_stress": 0.0453, "risk_tier": "high", "colour": "#FF6D00" }, "geometry": { "type": "Point", "coordinates": [ 7.16, 4.71 ] } },
{ "type": "Feature", "properties": { "sample_id": "S095", "crs": 0.6264, "hi_computed": 0.0, "tph_score": 0.65420002, "metal_score": 0.0, "ndvi_stress": 0.0881, "risk_tier": "high", "colour": "#FF6D00" }, "geometry": { "type": "Point", "coordinates": [ 7.19, 4.78 ] } },
{ "type": "Feature", "properties": { "sample_id": "S096", "crs": 0.6592, "hi_computed": 0.0, "tph_score": 0.68839997, "metal_score": 0.0, "ndvi_stress": 0.0447, "risk_tier": "high", "colour": "#FF6D00" }, "geometry": { "type": "Point", "coordinates": [ 7.09, 4.72 ] } },
{ "type": "Feature", "properties": { "sample_id": "S097", "crs": 0.9292, "hi_computed": 0.0, "tph_score": 0.97039998, "metal_score": 0.0, "ndvi_stress": 0.0453, "risk_tier": "critical", "colour": "#FF1744" }, "geometry": { "type": "Point", "coordinates": [ 7.152, 4.722 ] } },
{ "type": "Feature", "properties": { "sample_id": "S098", "crs": 0.0394, "hi_computed": 0.0, "tph_score": 0.0411, "metal_score": 0.0003, "ndvi_stress": 0.0881, "risk_tier": "low", "colour": "#69F0AE" }, "geometry": { "type": "Point", "coordinates": [ 7.21, 4.81 ] } },
{ "type": "Feature", "properties": { "sample_id": "S099", "crs": 0.247, "hi_computed": 0.0, "tph_score": 0.2579, "metal_score": 0.0, "ndvi_stress": 0.0881, "risk_tier": "low", "colour": "#69F0AE" }, "geometry": { "type": "Point", "coordinates": [ 7.175, 4.79 ] } },
{ "type": "Feature", "properties": { "sample_id": "S100", "crs": 0.2488, "hi_computed": 0.0, "tph_score": 0.2599, "metal_score": 0.0, "ndvi_stress": 0.0604, "risk_tier": "low", "colour": "#69F0AE" }, "geometry": { "type": "Point", "coordinates": [ 7.18, 4.73 ] } },
{ "type": "Feature", "properties": { "sample_id": "S101", "crs": 0.5285, "hi_computed": 0.0, "tph_score": 0.55190003, "metal_score": 0.0, "ndvi_stress": 0.0563, "risk_tier": "high", "colour": "#FF6D00" }, "geometry": { "type": "Point", "coordinates": [ 7.13, 4.68 ] } },
{ "type": "Feature", "properties": { "sample_id": "S102", "crs": 0.1828, "hi_computed": 0.0, "tph_score": 0.1909, "metal_score": 0.0006, "ndvi_stress": 0.0447, "risk_tier": "low", "colour": "#69F0AE" }, "geometry": { "type": "Point", "coordinates": [ 7.085, 4.715 ] } },
{ "type": "Feature", "properties": { "sample_id": "HI", "crs": 0.0052, "hi_computed": 0.625, "tph_score": 0.0055, "metal_score": 0.0, "ndvi_stress": 0.0, "risk_tier": "low", "colour": "#69F0AE" }, "geometry": { "type": "Point", "coordinates": [ 7.0, 6.0 ] } },
{ "type": "Feature", "properties": { "sample_id": "HI", "crs": 0.0052, "hi_computed": 4.5, "tph_score": 0.0055, "metal_score": 0.0, "ndvi_stress": 0.0, "risk_tier": "low", "colour": "#69F0AE" }, "geometry": { "type": "Point", "coordinates": [ 7.0, 6.0 ] } },
{ "type": "Feature", "properties": { "sample_id": "HI", "crs": 0.0063, "hi_computed": 5.5, "tph_score": 0.0066, "metal_score": 0.0, "ndvi_stress": 0.138, "risk_tier": "low", "colour": "#69F0AE" }, "geometry": { "type": "Point", "coordinates": [ 6.878, 4.945 ] } },
{ "type": "Feature", "properties": { "sample_id": "HI", "crs": 0.0063, "hi_computed": 5.5, "tph_score": 0.0066, "metal_score": 0.0, "ndvi_stress": 0.138, "risk_tier": "low", "colour": "#69F0AE" }, "geometry": { "type": "Point", "coordinates": [ 6.878, 4.945 ] } }
]
}
